#dP2021 12 28  0  0  0.00000000      96 __u+U ITR00 FIT  IAC
## 2190 172800.00000000   900.00000000 59576 0.0000000000000
+  126   C01C02C03C04C05C06C07C08C09C10C11C12C13C14C16C19C20
+        C21C22C23C24C25C26C27C28C29C30C32C33C34C35C36C37C38
+        C39C40C41C42C43C44C45C46C59C60E01E02E03E04E05E07E08
+        E09E11E12E13E14E15E18E19E21E24E25E26E27E30E31E33E36
+        G01G02G03G04G05G06G07G08G09G10G12G13G14G15G16G17G18
+        G19G20G21G22G23G24G25G26G27G28G29G30G31G32J01J02J03
+        J07R01R02R03R04R05R06R07R08R09R10R11R12R13R14R15R17
+        R18R19R20R21R22R23R24  0  0  0  0  0  0  0  0  0  0
++        13 12  0 13 12  9  9  9  8  9  9  9  9  8  9  7  7
++         7  7  7  7  7  7  7  7  7  7  7  7  7  7  7  7  8
++         8  8  7  7  7  7  7  7 14 12  5  4  4  4  4  5  5
++         4  5  5  5  4  4  4  4  4  4  4  4  4  4  5  5  4
++         3  4  4  3  4  4  4  3  4  3  4  4  3  4  4  4  4
++         4  4  3  4  3  3  4  4  4  4  4  3  4  3 12  8  8
++        15  7  6  5  5  5 13  6  6  6 13  7  6  7  6  6  6
++         6  7  7  6  7 13  6  0  0  0  0  0  0  0  0  0  0
%c M  cc GPS ccc cccc cccc cccc cccc ccccc ccccc ccccc ccccc
%c cc cc ccc ccc cccc cccc cccc cccc ccccc ccccc ccccc ccccc
%f  0.0000000  0.000000000  0.00000000000  0.000000000000000
%f  0.0000000  0.000000000  0.00000000000  0.000000000000000
%i    0    0    0    0      0      0      0      0         0
%i    0    0    0    0      0      0      0      0         0
/* INFORMATION & ANALYSIS CENTER (IAC)            RAPID DATA
/* S/V CLOCKS ARE ALIGNED TO GNSS TIME                      
/* G:C1WC2W R:C1PC2P E:C1XC5X C:C2IC6I J:C1CC2S             
/* PCV:IGS14_2186 OL/AL:FES2004  NONE     YN ORB:CoN CLK:CoN
*  2021 12 28 18  0  0.00000000
PC01 -34321.483642  24468.514886    355.454067   -296.716219
PC02   4308.252980  41941.930969    153.007633    764.331317
PC03      0.000000      0.000000      0.000000 999999.999999
PC04 -39585.157846  14459.781043    563.187987   -212.108513
PC05  21778.010061  36100.526682   -127.104852    347.609164
PC06 -14206.500423  25032.482279 -30882.867296    709.530975
PC07 -10498.260558  40781.936907   -107.165134     67.443845
PC08   2540.760114  29288.243341  30300.934927     14.867757
PC09  -6794.254025  24775.964326 -33196.753956   -387.043095
PC10  -5093.585353  41190.463478   6080.548751    138.508324
PC11 -15165.696163 -11357.588862 -20403.316552   -305.166618
PC12   5165.298923 -15738.773763 -22417.087988   -430.401684
PC13   6591.120993  32043.982980  26888.582453   -163.959449
PC14  -7404.024541 -18740.079133  19344.256856    483.786923
PC16 -19278.226741  23946.752531 -28836.941441     38.729697
PC19  13237.853289   9311.107677 -22711.938936    916.925181
PC20   1624.266568  23964.042548 -14179.735199   -798.695129
PC21  11714.496335 -25107.862213  -3386.880504   -954.145450
PC22  17673.992237 -11293.749531 -18420.434427   -963.037145
PC23 -18875.671024    257.067369 -20548.843438   -964.513911
PC24 -10202.891582 -23884.430514  10147.697762   -948.460373
PC25 -21459.195810 -15806.503149  -8234.908732   -803.181365
PC26   4717.685545 -17627.955162  21089.670748    801.428471
PC27 -15005.456023  15010.632238  18111.329968    652.454922
PC28 -27033.117092   6269.561220   2932.902380     14.263816
PC29  23420.065156   5424.197077  14166.639931    493.812131
PC30   5609.677083  15033.828399  22828.076420    489.858344
PC32 -11574.950249  25152.967872   3479.987865   -956.831950
PC33 -13275.047273  -9363.663539  22691.439400   -957.455695
PC34  -6685.791648 -14805.375738 -22697.693833   -504.445995
PC35  26936.936565  -6836.860929  -2324.587184     67.175602
PC36  20998.967543  16651.323168   7821.318528   -846.907412
PC37  -6011.769292  16815.107828 -21440.190281   -924.812956
PC38  -6661.003370  25361.692645  33085.913325    199.961039
PC39 -22616.321227  24418.268462 -26002.026334     34.481022
PC40 -17615.804999  37936.763812  -4744.696077    230.618279
PC41 -17697.608173  10892.384380  18674.731020   -918.643546
PC42  -1024.327771 -24443.897547  13471.893023   -930.851109
PC43 -23031.396826  -5992.685621 -14595.472971   -951.547465
PC44  14609.872223 -15590.172401 -17939.348298    513.236508
PC45  18714.629708   -382.124643  20704.096435    639.012739
PC46  11330.302593  23876.251974  -9034.302262    -84.817161
PC59 -32309.253940  27096.771493   -470.786946     -0.085101
PC60   7292.559952  41497.324305   1593.643004     -0.304112
PE01 -12757.857697 -23889.812732 -11925.345158   -547.732777
PE02  12828.606630  23815.141175  12047.875499    269.887476
PE03  11511.435073  12631.835802 -24176.840518   -511.175777
PE04 -23727.367900   4660.140440  17073.070718   -930.653410
PE05  -7710.753170  22828.912307 -17198.228708   -223.002575
PE07  22187.972518 -19595.326392    296.533683   -622.455358
PE08  23770.358523  -5200.278976 -16866.991586   5881.343576
PE09 -22002.554813  19785.804780   -515.431976   5414.322802
PE11 -18378.715193   8613.852781  21548.636051   4797.578607
PE12 -28475.124153  -5514.268107   5954.206683   4838.069776
PE13  18864.204190  -8206.594514 -21271.634263    425.108323
PE14    107.553745  16096.182731  17046.412516  -1690.602664
PE15  28484.264803   5542.239387  -5825.427997    772.600615
PE18    536.677203 -22411.473105 -23530.278711  -1860.243029
PE19  -9173.688618 -14393.515377  24180.977920    463.564772
PE21  -1645.466666 -28987.921698   5725.048465   -707.958712
PE24 -11786.796540  16576.286695 -21528.285740  -1304.700771
PE25   1488.626040  28965.735235  -5946.323360   -558.402040
PE26  -2850.193156 -17424.230890 -23745.989880   -622.773540
PE27  11078.897826 -17674.351260  20997.269000   -197.036658
PE30  17249.866403   5329.348531  23453.545949   -146.665908
PE31 -17169.154301  -3913.324587 -23782.522914   -489.989196
PE33 -21288.655604 -15957.360392 -12967.121110   -460.968426
PE36   1781.889163  17057.728323  24134.438775   -310.230921
PG01 -22248.774312 -14484.552477  -3529.288921    471.931174
PG02   5211.606980  17320.782317  20079.399247   -647.085609
PG03 -12613.430107 -15529.731212  17418.014807    -57.303439
PG04 -17053.773160  -5766.751477  19554.657376   -197.338676
PG05   5772.227438  25369.176067  -5087.328273    -65.968674
PG06 -11327.021589  10345.598774  21760.043803    155.126440
PG07 -24030.258468  -3897.949260 -10813.171215    296.008154
PG08  -7107.576568 -13406.181304 -21800.342095    -49.891464
PG09 -23039.914202   4983.113317  12194.550873   -359.447855
PG10  11854.072327 -14706.323990 -18415.808765   -279.691616
PG12  10454.324464  18329.654845  15954.397138   -147.525012
PG13  -1879.356257  16628.742147 -20742.642038    236.526744
PG14 -12938.593582  14105.349672 -18391.405528    -62.381080
PG15   9542.892632  12961.381788 -21524.037536    -95.747251
PG16   -526.090347 -26208.231903  -2428.857800   -447.384316
PG17 -22716.224504  13765.599635   1418.423014    553.793544
PG18  23442.633703   3257.655688 -12156.887887    271.338371
PG19 -18968.221773  16098.472951   8785.530835     98.208408
PG20    765.879555  25993.040098   6034.785761    517.428859
PG21 -17970.183629 -16056.784127 -11122.752181    154.848424
PG22 -11173.813032 -21896.594895  10497.091446   -430.649262
PG23  14931.627249  -2373.241387 -21850.378275     16.981364
PG24  20668.864772  15181.353150  -7976.608204    276.410728
PG25  14956.341039   6241.942404  20819.526178    262.610481
PG26   5888.291610 -23199.720196  11106.418582    169.268712
PG27   4186.070632 -18073.075648 -19041.979799     33.063434
PG28  -9583.470450  21168.208228 -12535.977689    433.764301
PG29  21842.906124   -355.515113  15107.159669   -460.040204
PG30 -18965.998323   4789.531129 -18002.615648   -502.732344
PG31   9704.281397 -12032.430637  21508.829598   -157.251500
PG32  20037.455351 -16748.137159   4380.882930    -41.856697
PJ01 -34529.488503  23274.749178  11427.980787    319.577753
PJ02 -19943.540350  25890.539800 -22060.962326     -0.540723
PJ03 -29007.911575  26147.484963  21202.931766    -10.805971
PJ07 -25394.396236  33670.704927     -4.123977     -0.011289
PR01 -15823.556316  13636.788751  14630.638998      7.341465
PR02 -11055.950853  22527.054985  -4735.678324    504.730358
PR03    541.022145  16822.290237 -19152.573459     48.942213
PR04  11420.649251   1651.040789 -22724.736470    120.983417
PR05  16113.565772 -14262.733463 -13667.857647     84.983190
PR06   9722.561995 -22852.210331   5746.819590    -23.936984
PR07  -1126.113304 -16256.864308  19637.722381    -38.838239
PR08 -11608.102805  -1585.498118  22711.570454    -62.771403
PR09  -1132.691652 -18836.424429  17213.921938     31.146968
PR10 -11407.558669 -22572.662633   2972.757035    -78.379799
PR11 -15882.821485 -13842.710427 -14378.000442     48.176025
PR12 -10455.210905   3757.207428 -22938.083957    290.293773
PR13    503.333228  18069.016646 -18019.510336    -16.271441
PR14  11896.400277  22500.838627  -1613.369306     72.603544
PR15  15752.633760  13419.962389  14934.050758     99.293304
PR17  10556.133484   9786.218925  21084.166069    487.615809
PR18  23407.672286   4640.961041   8963.196479    102.012310
PR19  24468.013697  -1824.725757  -6978.472306   -172.361843
PR20   9735.335542  -9123.180453 -21716.861110    -62.040456
PR21 -11862.324666  -9502.826361 -20469.689024   -265.749008
PR22 -23872.825108  -4352.439732  -8021.838938   -154.427076
PR23 -21547.417773   4996.900782  12704.135646    -24.864321
PR24  -8837.094818   9924.827297  21793.140698     73.200819
EOF
